OBJECT_NAME,OBJECT_ID,EPOCH,MEAN_MOTION,ECCENTRICITY,INCLINATION,RA_OF_ASC_NODE,ARG_OF_PERICENTER,MEAN_ANOMALY,EPHEMERIS_TYPE,CLASSIFICATION_TYPE,NORAD_CAT_ID,ELEMENT_SET_NO,REV_AT_EPOCH,BSTAR,MEAN_MOTION_DOT,MEAN_MOTION_DDOT
IRIDIUM 135,2017-083A,2026-07-02T10:20:27.203424,14.34217752,.00021897,86.3978,315.6421,92.5553,267.5894,0,U,43070,999,44633,.906719E-5,.45E-6,0
IRIDIUM 138,2017-083B,2026-07-02T14:17:55.197600,14.34217697,.00021677,86.3993,315.2712,88.1495,271.9949,0,U,43071,999,44634,.6543034E-5,.38E-6,0
IRIDIUM 116,2017-083C,2026-07-02T15:12:43.207488,14.34217746,.00022742,86.3978,315.5432,100.8170,259.3282,0,U,43072,999,44638,.8749231E-5,.44E-6,0
IRIDIUM 130,2017-083D,2026-07-02T14:27:03.117888,14.34217566,.00020648,86.3988,315.8332,98.5878,261.5552,0,U,43073,999,44632,.10684355E-4,.5E-6,0
IRIDIUM 151,2017-083E,2026-07-02T15:30:59.165568,14.34218004,.00022356,86.3981,315.5959,93.9583,266.1868,0,U,43074,999,44635,.17392859E-4,.68E-6,0
IRIDIUM 134,2017-083F,2026-07-02T09:43:55.069536,14.34218249,.00021788,86.3981,315.7048,95.1965,264.9480,0,U,43075,999,44628,.70460415E-4,.217E-5,0
IRIDIUM 137,2017-083G,2026-07-02T15:03:35.249184,14.34217786,.00026,86.3983,315.7051,99.0472,261.1018,0,U,43076,999,44638,.7973065E-5,.42E-6,0
IRIDIUM 141,2017-083H,2026-07-02T09:53:03.180768,14.34217810,.00022009,86.3978,315.6251,91.5678,268.5770,0,U,43077,999,44635,.10599001E-4,.49E-6,0
IRIDIUM 153,2017-083J,2026-07-02T13:45:35.401824,14.34217921,.00021461,86.3968,284.0383,91.9371,268.2071,0,U,43078,999,44748,.1547708E-4,.63E-6,0
IRIDIUM 131,2017-083K,2026-07-02T14:36:11.175552,14.34218400,.00022412,86.3985,315.7298,93.0347,267.1106,0,U,43079,999,44631,.56535689E-4,.178E-5,0
IRIDIUM 144,2018-030A,2026-07-02T12:14:15.393696,14.34217594,.00022668,86.3965,283.9935,98.0796,262.0657,0,U,43249,999,43233,.40943871E-4,.134E-5,0
IRIDIUM 149,2018-030B,2026-07-02T12:23:23.457408,14.34217453,.00021625,86.3960,283.9576,93.7650,266.3793,0,U,43250,999,43235,-.6006482E-5,.3E-7,0
IRIDIUM 157,2018-030C,2026-07-02T12:50:47.419584,14.34218367,.00022285,86.3965,284.0030,94.5210,265.6240,0,U,43251,999,43233,.62794253E-4,.196E-5,0
IRIDIUM 140,2018-030D,2026-07-02T13:18:11.436192,14.34217831,.00021992,86.3966,284.0078,95.2990,264.8457,0,U,43252,999,43239,.28049117E-4,.98E-6,0
IRIDIUM 145,2018-030E,2026-07-02T12:59:54.490560,14.34216496,.00022787,86.3964,283.9852,103.0851,257.0599,0,U,43253,999,43232,.10720693E-3,.32E-5,0
IRIDIUM 146,2018-030F,2026-07-02T12:32:31.428672,14.34218623,.00022797,86.3966,284.0054,98.4104,261.7350,0,U,43254,999,43233,.79476772E-4,.242E-5,0
IRIDIUM 148,2018-030G,2026-07-02T13:27:19.483488,14.34217456,.0002247,86.3963,284.0329,95.3393,264.8059,0,U,43255,999,43237,-.3282708E-5,.11E-6,0
IRIDIUM 142,2018-030H,2026-07-02T07:40:15.452256,14.34217738,.00022909,86.3962,284.0220,98.7524,261.3931,0,U,43256,999,43230,.765354E-5,.41E-6,0
IRIDIUM 150,2018-030J,2026-07-02T08:35:03.435360,14.34218134,.00021901,86.3967,284.1230,96.2895,263.8551,0,U,43257,999,43233,.59584292E-4,.187E-5,0
IRIDIUM 143,2018-030K,2026-07-02T13:09:03.119328,14.34217083,.00022555,86.3968,284.1366,98.1422,262.0029,0,U,43258,999,43229,.50142419E-4,.16E-5,0
IRIDIUM 161,2018-047C,2026-07-02T10:07:21.715968,14.43280939,.00024434,86.4475,82.1014,80.0445,280.1032,0,U,43478,999,42733,.10488015E-3,.373E-5,0
IRIDIUM 152,2018-047D,2026-07-02T15:50:42.878400,14.34214940,.00021361,86.3951,81.8624,81.5878,278.5560,0,U,43479,999,42470,-.96560154E-4,-.251E-5,0
IRIDIUM 147,2018-047E,2026-07-02T10:58:25.769280,14.34220530,.00022137,86.3952,81.9532,87.4612,272.6837,0,U,43480,999,42467,.91734521E-4,.277E-5,0
IRIDIUM 110,2018-047F,2026-07-02T11:07:34.282272,14.34217856,.00023709,86.3953,82.0428,76.6533,283.4927,0,U,43481,999,42466,.13565623E-4,.58E-6,0
IRIDIUM 162,2018-047G,2026-07-02T09:58:17.023584,14.43282586,.00022242,86.4472,81.9946,83.2998,276.8456,0,U,43482,999,42732,.10050236E-3,.358E-5,0
IRIDIUM 160,2018-061A,2026-07-02T14:50:58.471584,14.34217839,.00022496,86.3948,50.3439,85.9941,274.1512,0,U,43569,999,41558,.7101342E-5,.4E-6,0
IRIDIUM 166,2018-061B,2026-07-02T13:47:02.475744,14.34218192,.00022251,86.3947,50.3129,88.8527,271.2924,0,U,43570,999,41560,.58579772E-4,.184E-5,0
IRIDIUM 158,2018-061C,2026-07-02T14:41:50.462304,14.34217469,.00020018,86.3944,50.3065,84.1573,275.9851,0,U,43571,999,41557,-.1671943E-5,.15E-6,0
IRIDIUM 165,2018-061D,2026-07-02T13:37:54.461280,14.34217863,.00021639,86.3948,50.3720,90.0240,270.1203,0,U,43572,999,41559,.15315203E-4,.63E-6,0
IRIDIUM 155,2018-061E,2026-07-02T14:23:34.377216,14.34218555,.0002047,86.3943,50.2269,86.3098,273.8332,0,U,43573,999,41556,.45219373E-4,.146E-5,0
