IRIDIUM 135             
1 43070U 17083A   26183.43087041  .00000045  00000+0  90672-5 0  9997
2 43070  86.3978 315.6421 0002189  92.5553 267.5894 14.34217752446335
IRIDIUM 138             
1 43071U 17083B   26183.59577775  .00000038  00000+0  65430-5 0  9999
2 43071  86.3993 315.2712 0002167  88.1495 271.9949 14.34217697446343
IRIDIUM 116             
1 43072U 17083C   26183.63383342  .00000044  00000+0  87492-5 0  9999
2 43072  86.3978 315.5432 0002274 100.8170 259.3282 14.34217746446389
IRIDIUM 130             
1 43073U 17083D   26183.60211942  .00000050  00000+0  10684-4 0  9998
2 43073  86.3988 315.8332 0002064  98.5878 261.5552 14.34217566446327
IRIDIUM 151             
1 43074U 17083E   26183.64651812  .00000068  00000+0  17393-4 0  9990
2 43074  86.3981 315.5959 0002235  93.9583 266.1868 14.34218004446357
IRIDIUM 134             
1 43075U 17083F   26183.40549849  .00000217  00000+0  70460-4 0  9991
2 43075  86.3981 315.7048 0002178  95.1965 264.9480 14.34218249446282
IRIDIUM 137             
1 43076U 17083G   26183.62749131  .00000042  00000+0  79731-5 0  9999
2 43076  86.3983 315.7051 0002600  99.0472 261.1018 14.34217786446387
IRIDIUM 141             
1 43077U 17083H   26183.41184237  .00000049  00000+0  10599-4 0  9990
2 43077  86.3978 315.6251 0002200  91.5678 268.5770 14.34217810446355
IRIDIUM 153             
1 43078U 17083J   26183.57332641  .00000063  00000+0  15477-4 0  9998
2 43078  86.3968 284.0383 0002146  91.9371 268.2071 14.34217921447482
IRIDIUM 131             
1 43079U 17083K   26183.60846268  .00000178  00000+0  56536-4 0  9996
2 43079  86.3985 315.7298 0002241  93.0347 267.1106 14.34218400446312
IRIDIUM 144             
1 43249U 18030A   26183.50990039  .00000134  00000+0  40944-4 0  9991
2 43249  86.3965 283.9935 0002266  98.0796 262.0657 14.34217594432338
IRIDIUM 149             
1 43250U 18030B   26183.51624372  .00000003  00000+0 -60065-5 0  9991
2 43250  86.3960 283.9576 0002162  93.7650 266.3793 14.34217453432356
IRIDIUM 157             
1 43251U 18030C   26183.53527106  .00000196  00000+0  62794-4 0  9993
2 43251  86.3965 284.0030 0002228  94.5210 265.6240 14.34218367432335
IRIDIUM 140             
1 43252U 18030D   26183.55429903  .00000098  00000+0  28049-4 0  9998
2 43252  86.3966 284.0078 0002199  95.2990 264.8457 14.34217831432391
IRIDIUM 145             
1 43253U 18030E   26183.54160290  .00000320  00000+0  10721-3 0  9994
2 43253  86.3964 283.9852 0002278 103.0851 257.0599 14.34216496432320
IRIDIUM 146             
1 43254U 18030F   26183.52258598  .00000242  00000+0  79477-4 0  9999
2 43254  86.3966 284.0054 0002279  98.4104 261.7350 14.34218623432330
IRIDIUM 148             
1 43255U 18030G   26183.56064217  .00000011  00000+0 -32827-5 0  9991
2 43255  86.3963 284.0329 0002247  95.3393 264.8059 14.34217456432371
IRIDIUM 142             
1 43256U 18030H   26183.31962329  .00000041  00000+0  76535-5 0  9992
2 43256  86.3962 284.0220 0002290  98.7524 261.3931 14.34217738432309
IRIDIUM 150             
1 43257U 18030J   26183.35767865  .00000187  00000+0  59584-4 0  9990
2 43257  86.3967 284.1230 0002190  96.2895 263.8551 14.34218134432339
IRIDIUM 143             
1 43258U 18030K   26183.54795277  .00000160  00000+0  50142-4 0  9992
2 43258  86.3968 284.1366 0002255  98.1422 262.0029 14.34217083432298
IRIDIUM 161             
1 43478U 18047C   26183.42177912  .00000373  00000+0  10488-3 0  9995
2 43478  86.4475  82.1014 0002443  80.0445 280.1032 14.43280939427330
IRIDIUM 152             
1 43479U 18047D   26183.66021850 -.00000251  00000+0 -96560-4 0  9994
2 43479  86.3951  81.8624 0002136  81.5878 278.5560 14.34214940424701
IRIDIUM 147             
1 43480U 18047E   26183.45724270  .00000277  00000+0  91735-4 0  9994
2 43480  86.3952  81.9532 0002213  87.4612 272.6837 14.34220530424670
IRIDIUM 110             
1 43481U 18047F   26183.46359123  .00000058  00000+0  13566-4 0  9990
2 43481  86.3953  82.0428 0002370  76.6533 283.4927 14.34217856424660
IRIDIUM 162             
1 43482U 18047G   26183.41547481  .00000358  00000+0  10050-3 0  9999
2 43482  86.4472  81.9946 0002224  83.2998 276.8456 14.43282586427329
IRIDIUM 160             
1 43569U 18061A   26183.61873231  .00000040  00000+0  71013-5 0  9994
2 43569  86.3948  50.3439 0002249  85.9941 274.1512 14.34217839415581
IRIDIUM 166             
1 43570U 18061B   26183.57433421  .00000184  00000+0  58580-4 0  9996
2 43570  86.3947  50.3129 0002225  88.8527 271.2924 14.34218192415605
IRIDIUM 158             
1 43571U 18061C   26183.61238961  .00000015  00000+0 -16719-5 0  9997
2 43571  86.3944  50.3065 0002001  84.1573 275.9851 14.34217469415576
IRIDIUM 165             
1 43572U 18061D   26183.56799145  .00000063  00000+0  15315-4 0  9990
2 43572  86.3948  50.3720 0002163  90.0240 270.1203 14.34217863415593
IRIDIUM 155             
1 43573U 18061E   26183.59970344  .00000146  00000+0  45219-4 0  9994
2 43573  86.3943  50.2269 0002047  86.3098 273.8332 14.34218555415565
